USA 167                 
1 27691U 03008A   26195.24211663 -.00000009  00000+0  00000+0 0  9992
2 27691  11.0133  43.1617 0003452 310.4123 263.9490  1.00270354  7042
USA 169 (MILSTAR-2 4)   
1 27711U 03012A   26195.41258556 -.00000209  00000+0  00000+0 0  9993
2 27711  12.3896  29.6159 0099315  10.2112 193.1234  1.00273302 33226
ASIASAT 4               
1 27718U 03014A   26194.54982293 -.00000231  00000+0  00000+0 0  9992
2 27718   4.7692  75.4149 0002910  39.0890 162.3871  1.00270064 45564
HELLAS-SAT 2            
1 27811U 03020A   26195.41443247 -.00000097  00000+0  00000+0 0  9991
2 27811   7.4200  67.5549 0003566  81.0181 282.8661  1.00271312 43129
THURAYA-2               
1 27825U 03026A   26195.21124275  .00000114  00000+0  00000+0 0  9996
2 27825   8.8801  31.8508 0002439  25.9011 354.3851  1.00273584 84621
OPTUS C1                
1 27831U 03028B   26195.51663419 -.00000165  00000+0  00000+0 0  9993
2 27831   6.9557  69.0751 0005212  41.1995 163.7892  1.00269182 53331
USA 170                 
1 27875U 03040A   26195.20742940  .00000113  00000+0  00000+0 0  9990
2 27875  10.5558  47.6872 0001771  79.0224 264.2745  1.00274654 33262
GALAXY 13 (HORIZONS-1)  
1 27954U 03044A   26195.53789596  .00000124  00000+0  00000+0 0  9998
2 27954   1.4876  83.5148 0002155  28.5910 223.9175  1.00270996 46847
YAMAL 202               
1 28089U 03053A   26195.62483260 -.00000093  00000+0  00000+0 0  9993
2 28089   6.4094  70.6035 0003223  41.8786 208.4826  1.00271955 82973
UFO 11 (USA 174)        
1 28117U 03057A   26195.61294917 -.00000116  00000+0  00000+0 0  9993
2 28117   8.9577  33.6882 0002681  93.8846 101.1357  1.00270236 82720
USA 176 (DSP 22)        
1 28158U 04004A   26195.40663243 -.00000309  00000+0  00000+0 0  9994
2 28158  12.0985  25.8648 0001161 290.3753  72.9911  1.00265954 33212
ABS-4 (MOBISAT-1)       
1 28184U 04007A   26195.21470943  .00000028  00000+0  00000+0 0  9995
2 28184   6.1072  71.6764 0004598  43.0894 315.5561  1.00273153 52607
INTELSAT 10-02          
1 28358U 04022A   26195.55876043 -.00000019  00000+0  00000+0 0  9994
2 28358   0.0546 250.7792 0000431 353.4325 248.3532  1.00271097 80831
ANIK F2                 
1 28378U 04027A   26195.55402942 -.00000060  00000+0  00000+0 0  9990
2 28378   3.3561  79.0808 0003568  31.8642 269.7909  1.00271384 41537
AMC-15                  
1 28446U 04041A   26195.56298731 -.00000096  00000+0  00000+0 0  9991
2 28446   0.0279 317.2335 0002101 149.0709 283.7443  1.00270837 79579
NSS-10                  
1 28526U 05003A   26195.45878229 -.00000264  00000+0  00000+0 0  9990
2 28526   6.5158  70.1183 0002615  40.9580 308.9486  1.00270214 53429
INMARSAT 4-F1           
1 28628U 05009A   26195.40181966  .00000022  00000+0  00000+0 0  9990
2 28628   5.2045  42.7871 0002400  72.0859 140.1433  1.00271553 77947
DIRECTV 8               
1 28659U 05019A   26195.53544698  .00000000  00000+0  00000+0 0  9990
2 28659   0.0192  47.2310 0003089  79.3546 239.5319  1.00270640 77348
GALAXY 28 (G-28)        
1 28702U 05022A   26195.45878229 -.00000210  00000+0  00000+0 0  9998
2 28702   3.3664  78.5961 0002573  25.2370 326.5489  1.00272095 52241
THAICOM 4               
1 28786U 05028A   26195.58268278 -.00000370  00000+0  00000+0 0  9994
2 28786   0.3139  85.5227 0001392  10.9547 165.2152  1.00269996 52527
ANIK F1R                
1 28868U 05036A   26195.12003812 -.00000085  00000+0  00000+0 0  9998
2 28868   4.3793  76.2445 0003716  28.7758 122.8779  1.00271383 46722
SYRACUSE 3A             
1 28885U 05041B   26195.21184942  .00000118  00000+0  00000+0 0  9993
2 28885   4.7086  75.5068 0002712  33.6395 305.8360  1.00273690 76017
INMARSAT 4-F2           
1 28899U 05044A   26194.54909826 -.00000268  00000+0  00000+0 0  9999
2 28899   5.1293  43.6584 0002772  61.2305 167.7008  1.00270497 75789
METEOSAT-9 (MSG-2)      
1 28912U 05049B   26195.21167609  .00000112  00000+0  00000+0 0  9997
2 28912   9.4206  53.8969 0002113 356.0044   4.0386  1.00271474  7266
EUTELSAT 174A           
1 28924U 05052A   26195.54419787 -.00000003  00000+0  00000+0 0  9997
2 28924   4.2858  76.1873 0005810  38.9885 187.0829  1.00270918 52607
ECHOSTAR 10             
1 28935U 06003A   26195.23447459 -.00000062  00000+0  00000+0 0  9994
2 28935   0.0316 315.0756 0001049 136.6098 174.6408  1.00270795 74735
SPAINSAT                
1 28945U 06007A   26195.27248184 -.00000225  00000+0  00000+0 0  9998
2 28945   0.6312  86.0697 0004610  26.7239 247.2385  1.00269540 74489
JCSAT-5A                
1 29045U 06010A   26195.64691603 -.00000337  00000+0  00000+0 0  9997
2 29045   1.1782  83.9071 0001658  27.1329 186.3819  1.00269570 74044
ASTRA 1KR               
1 29055U 06012A   26195.56283377  .00000110  00000+0  00000+0 0  9994
2 29055   0.5424  83.1730 0003286  22.5633  48.2982  1.00270087 45973
GALAXY 16 (G-16)        
1 29236U 06023A   26195.53943366 -.00000134  00000+0  00000+0 0  9992
2 29236   0.0125  94.4952 0002534  31.9261 261.1708  1.00271061 73240
EUTELSAT 33F            
1 29270U 06032A   26195.62961729  .00000146  00000+0  00000+0 0  9995
2 29270   1.7304  81.9346 0003398  28.4533  81.8198  1.00271436 47589
JCSAT-3A                
1 29272U 06033A   26195.64635274 -.00000353  00000+0  00000+0 0  9994
2 29272   0.0143   9.3231 0001801 104.7503 179.1175  1.00270861 48019
