OBJECT_NAME,OBJECT_ID,EPOCH,MEAN_MOTION,ECCENTRICITY,INCLINATION,RA_OF_ASC_NODE,ARG_OF_PERICENTER,MEAN_ANOMALY,EPHEMERIS_TYPE,CLASSIFICATION_TYPE,NORAD_CAT_ID,ELEMENT_SET_NO,REV_AT_EPOCH,BSTAR,MEAN_MOTION_DOT,MEAN_MOTION_DDOT
USA 167,2003-008A,2026-07-14T05:48:38.876832,1.00270354,.00034521,11.0133,43.1617,310.4123,263.9490,0,U,27691,999,704,0,-.9E-7,0
USA 169 (MILSTAR-2 4),2003-012A,2026-07-14T09:54:07.392384,1.00273302,.00993155,12.3896,29.6159,10.2112,193.1234,0,U,27711,999,3322,0,-.209E-5,0
ASIASAT 4,2003-014A,2026-07-13T13:11:44.701152,1.00270064,.00029107,4.7692,75.4149,39.0890,162.3871,0,U,27718,999,4556,0,-.231E-5,0
HELLAS-SAT 2,2003-020A,2026-07-14T09:56:46.965408,1.00271312,.00035668,7.4200,67.5549,81.0181,282.8661,0,U,27811,999,4312,0,-.97E-6,0
THURAYA-2,2003-026A,2026-07-14T05:04:11.373600,1.00273584,.00024391,8.8801,31.8508,25.9011,354.3851,0,U,27825,999,8462,0,.114E-5,0
OPTUS C1,2003-028B,2026-07-14T12:23:57.194016,1.00269182,.00052124,6.9557,69.0751,41.1995,163.7892,0,U,27831,999,5333,0,-.165E-5,0
USA 170,2003-040A,2026-07-14T04:58:41.900160,1.00274654,.00017719,10.5558,47.6872,79.0224,264.2745,0,U,27875,999,3326,0,.113E-5,0
GALAXY 13 (HORIZONS-1),2003-044A,2026-07-14T12:54:34.210944,1.00270996,.00021553,1.4876,83.5148,28.5910,223.9175,0,U,27954,999,4684,0,.124E-5,0
YAMAL 202,2003-053A,2026-07-14T14:59:45.536640,1.00271955,.00032236,6.4094,70.6035,41.8786,208.4826,0,U,28089,999,8297,0,-.93E-6,0
UFO 11 (USA 174),2003-057A,2026-07-14T14:42:38.808288,1.00270236,.00026816,8.9577,33.6882,93.8846,101.1357,0,U,28117,999,8272,0,-.116E-5,0
USA 176 (DSP 22),2004-004A,2026-07-14T09:45:33.041952,1.00265954,.00011618,12.0985,25.8648,290.3753,72.9911,0,U,28158,999,3321,0,-.309E-5,0
ABS-4 (MOBISAT-1),2004-007A,2026-07-14T05:09:10.894752,1.00273153,.00045989,6.1072,71.6764,43.0894,315.5561,0,U,28184,999,5260,0,.28E-6,0
INTELSAT 10-02,2004-022A,2026-07-14T13:24:36.901152,1.00271097,.00004316,0.0546,250.7792,353.4325,248.3532,0,U,28358,999,8083,0,-.19E-6,0
ANIK F2,2004-027A,2026-07-14T13:17:48.141888,1.00271384,.00035682,3.3561,79.0808,31.8642,269.7909,0,U,28378,999,4153,0,-.6E-6,0
AMC-15,2004-041A,2026-07-14T13:30:42.103584,1.00270837,.00021016,0.0279,317.2335,149.0709,283.7443,0,U,28446,999,7957,0,-.96E-6,0
NSS-10,2005-003A,2026-07-14T11:00:38.789856,1.00270214,.00026159,6.5158,70.1183,40.9580,308.9486,0,U,28526,999,5342,0,-.264E-5,0
INMARSAT 4-F1,2005-009A,2026-07-14T09:38:37.218624,1.00271553,.00024006,5.2045,42.7871,72.0859,140.1433,0,U,28628,999,7794,0,.22E-6,0
DIRECTV 8,2005-019A,2026-07-14T12:51:02.619072,1.00270640,.00030897,0.0192,47.2310,79.3546,239.5319,0,U,28659,999,7734,0,0,0
GALAXY 28 (G-28),2005-022A,2026-07-14T11:00:38.789856,1.00272095,.00025731,3.3664,78.5961,25.2370,326.5489,0,U,28702,999,5224,0,-.21E-5,0
THAICOM 4,2005-028A,2026-07-14T13:59:03.792192,1.00269996,.00013928,0.3139,85.5227,10.9547,165.2152,0,U,28786,999,5252,0,-.37E-5,0
ANIK F1R,2005-036A,2026-07-14T02:52:51.293568,1.00271383,.00037165,4.3793,76.2445,28.7758,122.8779,0,U,28868,999,4672,0,-.85E-6,0
SYRACUSE 3A,2005-041B,2026-07-14T05:05:03.789888,1.00273690,.00027127,4.7086,75.5068,33.6395,305.8360,0,U,28885,999,7601,0,.118E-5,0
INMARSAT 4-F2,2005-044A,2026-07-13T13:10:42.089664,1.00270497,.00027722,5.1293,43.6584,61.2305,167.7008,0,U,28899,999,7578,0,-.268E-5,0
METEOSAT-9 (MSG-2),2005-049B,2026-07-14T05:04:48.814176,1.00271474,.00021138,9.4206,53.8969,356.0044,4.0386,0,U,28912,999,726,0,.112E-5,0
EUTELSAT 174A,2005-052A,2026-07-14T13:03:38.695968,1.00270918,.00058109,4.2858,76.1873,38.9885,187.0829,0,U,28924,999,5260,0,-.3E-7,0
ECHOSTAR 10,2006-003A,2026-07-14T05:37:38.604576,1.00270795,.00010499,0.0316,315.0756,136.6098,174.6408,0,U,28935,999,7473,0,-.62E-6,0
SPAINSAT,2006-007A,2026-07-14T06:32:22.430976,1.00269540,.00046107,0.6312,86.0697,26.7239,247.2385,0,U,28945,999,7448,0,-.225E-5,0
JCSAT-5A,2006-010A,2026-07-14T15:31:33.544992,1.00269570,.00016589,1.1782,83.9071,27.1329,186.3819,0,U,29045,999,7404,0,-.337E-5,0
ASTRA 1KR,2006-012A,2026-07-14T13:30:28.837728,1.00270087,.00032869,0.5424,83.1730,22.5633,48.2982,0,U,29055,999,4597,0,.11E-5,0
GALAXY 16 (G-16),2006-023A,2026-07-14T12:56:47.068224,1.00271061,.00025343,0.0125,94.4952,31.9261,261.1708,0,U,29236,999,7324,0,-.134E-5,0
EUTELSAT 33F,2006-032A,2026-07-14T15:06:38.933856,1.00271436,.00033987,1.7304,81.9346,28.4533,81.8198,0,U,29270,999,4758,0,.146E-5,0
JCSAT-3A,2006-033A,2026-07-14T15:30:44.876736,1.00270861,.00018014,0.0143,9.3231,104.7503,179.1175,0,U,29272,999,4801,0,-.353E-5,0
